[
    {
        "Altitude(m)": 576892.65650802,
        "Argument of Periapsis(deg)": -0.015068773855314936,
        "Eccentricity": 0.0,
        "Inclination(deg)": 97.0,
        "Latitude(deg)": 81.89451515004795,
        "Longitude(deg)": -70.58375937129313,
        "Mean Anomaly(deg)": 85.83709551279163,
        "RAAN(deg)": 90.00396470241235,
        "Satellite Name": "Starlink Shell 3 1768",
        "Satellite Number": 1768,
        "Semi-Major Axis(m)": 6938478.169268562,
        "Time(s)": 380
    },
    {
        "Altitude(m)": 576913.5500849647,
        "Argument of Periapsis(deg)": -0.015465320535717962,
        "Eccentricity": 0.0,
        "Inclination(deg)": 97.0,
        "Latitude(deg)": 82.19424255997986,
        "Longitude(deg)": -74.56902929713462,
        "Mean Anomaly(deg)": 86.46257171049673,
        "RAAN(deg)": 90.00406903668636,
        "Satellite Name": "Starlink Shell 3 1768",
        "Satellite Number": 1768,
        "Semi-Major Axis(m)": 6938478.169268562,
        "Time(s)": 390
    },
    {
        "Altitude(m)": 576931.0958387437,
        "Argument of Periapsis(deg)": -0.015861867216120987,
        "Eccentricity": 0.0,
        "Inclination(deg)": 97.0,
        "Latitude(deg)": 82.45466301918022,
        "Longitude(deg)": -78.84562172129499,
        "Mean Anomaly(deg)": 87.08804790820174,
        "RAAN(deg)": 90.00417337096036,
        "Satellite Name": "Starlink Shell 3 1768",
        "Satellite Number": 1768,
        "Semi-Major Axis(m)": 6938478.169268562,
        "Time(s)": 400
    },
    {
        "Altitude(m)": 576945.2839196027,
        "Argument of Periapsis(deg)": -0.01625841389652401,
        "Eccentricity": 0.0,
        "Inclination(deg)": 97.0,
        "Latitude(deg)": 82.67158776903901,
        "Longitude(deg)": -83.39689689846344,
        "Mean Anomaly(deg)": 87.71352410590681,
        "RAAN(deg)": 90.00427770523437,
        "Satellite Name": "Starlink Shell 3 1768",
        "Satellite Number": 1768,
        "Semi-Major Axis(m)": 6938478.169268562,
        "Time(s)": 410
    },
    {
        "Altitude(m)": 576956.1063703761,
        "Argument of Periapsis(deg)": -0.016654960576927034,
        "Eccentricity": 0.0,
        "Inclination(deg)": 97.0,
        "Latitude(deg)": 82.84106414582908,
        "Longitude(deg)": -88.19069807922446,
        "Mean Anomaly(deg)": 88.33900030361184,
        "RAAN(deg)": 90.00438203950837,
        "Satellite Name": "Starlink Shell 3 1768",
        "Satellite Number": 1768,
        "Semi-Major Axis(m)": 6938478.169268562,
        "Time(s)": 420
    },
    {
        "Altitude(m)": 576963.5571302115,
        "Argument of Periapsis(deg)": -0.01705150725733006,
        "Eccentricity": 0.0,
        "Inclination(deg)": 97.0,
        "Latitude(deg)": 82.9596665768072,
        "Longitude(deg)": -93.17834395055402,
        "Mean Anomaly(deg)": 88.96447650131688,
        "RAAN(deg)": 90.0044863737824,
        "Satellite Name": "Starlink Shell 3 1768",
        "Satellite Number": 1768,
        "Semi-Major Axis(m)": 6938478.169268562,
        "Time(s)": 430
    },
    {
        "Altitude(m)": 576967.6320374183,
        "Argument of Periapsis(deg)": -0.017448053937733084,
        "Eccentricity": 0.0,
        "Inclination(deg)": 97.0,
        "Latitude(deg)": 83.02480074564305,
        "Longitude(deg)": -98.29591582997136,
        "Mean Anomaly(deg)": 89.58995269902192,
        "RAAN(deg)": 90.0045907080564,
        "Satellite Name": "Starlink Shell 3 1768",
        "Satellite Number": 1768,
        "Semi-Major Axis(m)": 6938478.169268562,
        "Time(s)": 440
    },
    {
        "Altitude(m)": 576968.3288313859,
        "Argument of Periapsis(deg)": -0.017844600618136107,
        "Eccentricity": 0.0,
        "Inclination(deg)": 97.0,
        "Latitude(deg)": 83.034967138105,
        "Longitude(deg)": -103.46822530880098,
        "Mean Anomaly(deg)": 90.21542889672696,
        "RAAN(deg)": 90.0046950423304,
        "Satellite Name": "Starlink Shell 3 1768",
        "Satellite Number": 1768,
        "Semi-Major Axis(m)": 6938478.169268562,
        "Time(s)": 450
    },
    {
        "Altitude(m)": 576965.6471536686,
        "Argument of Periapsis(deg)": -0.018241147298539134,
        "Eccentricity": 0.0,
        "Inclination(deg)": 97.0,
        "Latitude(deg)": 82.98992670741131,
        "Longitude(deg)": -108.61507409324864,
        "Mean Anomaly(deg)": 90.84090509443203,
        "RAAN(deg)": 90.00479937660441,
        "Satellite Name": "Starlink Shell 3 1768",
        "Satellite Number": 1768,
        "Semi-Major Axis(m)": 6938478.169268562,
        "Time(s)": 460
    },
    {
        "Altitude(m)": 576959.5885481271,
        "Argument of Periapsis(deg)": -0.018637693978942157,
        "Eccentricity": 0.0,
        "Inclination(deg)": 97.0,
        "Latitude(deg)": 82.89072819755499,
        "Longitude(deg)": -113.65861324085535,
        "Mean Anomaly(deg)": 91.46638129213706,
        "RAAN(deg)": 90.00490371087842,
        "Satellite Name": "Starlink Shell 3 1768",
        "Satellite Number": 1768,
        "Semi-Major Axis(m)": 6938478.169268562,
        "Time(s)": 470
    },
    {
        "Altitude(m)": 576950.1564602102,
        "Argument of Periapsis(deg)": -0.019034240659345183,
        "Eccentricity": 0.0,
        "Inclination(deg)": 97.0,
        "Latitude(deg)": 82.73959014118137,
        "Longitude(deg)": -118.53018229115833,
        "Mean Anomaly(deg)": 92.09185748984208,
        "RAAN(deg)": 90.00500804515244,
        "Satellite Name": "Starlink Shell 3 1768",
        "Satellite Number": 1768,
        "Semi-Major Axis(m)": 6938478.169268562,
        "Time(s)": 480
    },
    {
        "Altitude(m)": 576937.3562353496,
        "Argument of Periapsis(deg)": -0.019430787339748207,
        "Eccentricity": 0.0,
        "Inclination(deg)": 97.0,
        "Latitude(deg)": 82.53966706877902,
        "Longitude(deg)": -123.17520957319383,
        "Mean Anomaly(deg)": 92.71733368754715,
        "RAAN(deg)": 90.00511237942644,
        "Satellite Name": "Starlink Shell 3 1768",
        "Satellite Number": 1768,
        "Semi-Major Axis(m)": 6938478.169268562,
        "Time(s)": 490
    },
    {
        "Altitude(m)": 576921.1951164294,
        "Argument of Periapsis(deg)": -0.019827334020151237,
        "Eccentricity": 0.0,
        "Inclination(deg)": 97.0,
        "Latitude(deg)": 82.29475343900295,
        "Longitude(deg)": -127.55547478409687,
        "Mean Anomaly(deg)": 93.3428098852522,
        "RAAN(deg)": 90.00521671370043,
        "Satellite Name": "Starlink Shell 3 1768",
        "Satellite Number": 1768,
        "Semi-Major Axis(m)": 6938478.169268562,
        "Time(s)": 500
    },
    {
        "Altitude(m)": 576901.6822404043,
        "Argument of Periapsis(deg)": -0.020223880700554257,
        "Eccentricity": 0.0,
        "Inclination(deg)": 97.0,
        "Latitude(deg)": 82.00898246148112,
        "Longitude(deg)": -131.64886555341732,
        "Mean Anomaly(deg)": 93.96828608295722,
        "RAAN(deg)": 90.00532104797446,
        "Satellite Name": "Starlink Shell 3 1768",
        "Satellite Number": 1768,
        "Semi-Major Axis(m)": 6938478.169268562,
        "Time(s)": 510
    },
    {
        "Altitude(m)": 576878.8286340297,
        "Argument of Periapsis(deg)": -0.020620427380957283,
        "Eccentricity": 0.0,
        "Inclination(deg)": 97.0,
        "Latitude(deg)": 81.68656363262163,
        "Longitude(deg)": -135.44732880236012,
        "Mean Anomaly(deg)": 94.59376228066226,
        "RAAN(deg)": 90.00542538224846,
        "Satellite Name": "Starlink Shell 3 1768",
        "Satellite Number": 1768,
        "Semi-Major Axis(m)": 6938478.169268562,
        "Time(s)": 520
    },
    {
        "Altitude(m)": 576852.6472086576,
        "Argument of Periapsis(deg)": -0.021016974061360306,
        "Eccentricity": 0.0,
        "Inclination(deg)": 97.0,
        "Latitude(deg)": 81.33158215825219,
        "Longitude(deg)": -138.9539003215845,
        "Mean Anomaly(deg)": 95.21923847836732,
        "RAAN(deg)": 90.00552971652247,
        "Satellite Name": "Starlink Shell 3 1768",
        "Satellite Number": 1768,
        "Semi-Major Axis(m)": 6938478.169268562,
        "Time(s)": 530
    },
    {
        "Altitude(m)": 576823.1527542147,
        "Argument of Periapsis(deg)": -0.021413520741763333,
        "Eccentricity": 0.0,
        "Inclination(deg)": 97.0,
        "Latitude(deg)": 80.94786463679837,
        "Longitude(deg)": -142.17956536223136,
        "Mean Anomaly(deg)": 95.84471467607237,
        "RAAN(deg)": 90.00563405079647,
        "Satellite Name": "Starlink Shell 3 1768",
        "Satellite Number": 1768,
        "Semi-Major Axis(m)": 6938478.169268562,
        "Time(s)": 540
    },
    {
        "Altitude(m)": 576790.361932249,
        "Argument of Periapsis(deg)": -0.021810067422166356,
        "Eccentricity": 0.0,
        "Inclination(deg)": 97.0,
        "Latitude(deg)": 80.53890309031999,
        "Longitude(deg)": -145.1404332880841,
        "Mean Anomaly(deg)": 96.4701908737774,
        "RAAN(deg)": 90.0057383850705,
        "Satellite Name": "Starlink Shell 3 1768",
        "Satellite Number": 1768,
        "Semi-Major Axis(m)": 6938478.169268562,
        "Time(s)": 550
    },
    {
        "Altitude(m)": 576754.2932681273,
        "Argument of Periapsis(deg)": -0.022206614102569383,
        "Eccentricity": 0.0,
        "Inclination(deg)": 97.0,
        "Latitude(deg)": 80.10782399070769,
        "Longitude(deg)": -147.8554551877176,
        "Mean Anomaly(deg)": 97.09566707148245,
        "RAAN(deg)": 90.0058427193445,
        "Satellite Name": "Starlink Shell 3 1768",
        "Satellite Number": 1768,
        "Semi-Major Axis(m)": 6938478.169268562,
        "Time(s)": 560
    }
]